COMMENT,ORIGINATOR,NORAD_CAT_ID,OBJECT_NAME,OBJECT_TYPE,CLASSIFICATION_TYPE,INTLDES,EPOCH,EPOCH_MICROSECONDS,MEAN_MOTION,ECCENTRICITY,INCLINATION,RA_OF_ASC_NODE,ARG_OF_PERICENTER,MEAN_ANOMALY,EPHEMERIS_TYPE,ELEMENT_SET_NO,REV_AT_EPOCH,BSTAR,MEAN_MOTION_DOT,MEAN_MOTION_DDOT,FILE,TLE_LINE0,TLE_LINE1,TLE_LINE2,OBJECT_ID,OBJECT_NUMBER,SEMIMAJOR_AXIS,PERIOD,APOGEE,PERIGEE,DECAYED
"GENERATED VIA SPACETRACK.ORG API","18 SPCS","48899","SPACEBEE-110","PAYLOAD","U","21059W","2021-12-22 04:06:39","997728","15.13148071","0.000962","97.5365","122.5539","2.52","357.6078","0","999","2711","0.00037207","0.00006538","0","3247017","0 SPACEBEE-110","1 48899U 21059W   21356.17129627  .00006538  00000-0  37207-3 0  9991","2 48899  97.5365 122.5539 0009620   2.5200 357.6078 15.13148071 27116","2021-059W","48899","6904.744","95.166","533.251","519.966","0"
"GENERATED VIA SPACETRACK.ORG API","18 SPCS","48899","SPACEBEE-110","PAYLOAD","U","21059W","2021-12-22 10:27:34","191360","15.13152458","0.0009611","97.5364","122.8154","1.6893","358.4368","0","999","2715","0.0003866","0.00006797","0","3247523","0 SPACEBEE-110","1 48899U 21059W   21356.43581240  .00006797  00000-0  38660-3 0  9994","2 48899  97.5364 122.8154 0009611   1.6893 358.4368 15.13152458 27158","2021-059W","48899","6904.730","95.166","533.231","519.959","0"
"GENERATED VIA SPACETRACK.ORG API","18 SPCS","48899","SPACEBEE-110","PAYLOAD","U","21059W","2021-12-22 21:34:08","889600","15.13158858","0.0009595","97.5366","123.2729","0.1429","359.9803","0","999","2722","0.00036725","0.00006454","0","3248121","0 SPACEBEE-110","1 48899U 21059W   21356.89871400  .00006454  00000-0  36725-3 0  9994","2 48899  97.5366 123.2729 0009595   0.1429 359.9803 15.13158858 27221","2021-059W","48899","6904.711","95.165","533.201","519.951","0"
"GENERATED VIA SPACETRACK.ORG API","18 SPCS","48899","SPACEBEE-110","PAYLOAD","U","21059W","2021-12-23 07:05:29","920416","15.13165466","0.0009574","97.5366","123.6651","358.8607","1.2601","0","999","2728","0.00040178","0.00007069","0","3248473","0 SPACEBEE-110","1 48899U 21059W   21357.29548519  .00007069  00000-0  40178-3 0  9991","2 48899  97.5366 123.6651 0009574 358.8607   1.2601 15.13165466 27289","2021-059W","48899","6904.691","95.165","533.166","519.945","0"
"GENERATED VIA SPACETRACK.ORG API","18 SPCS","48899","SPACEBEE-110","PAYLOAD","U","21059W","2021-12-23 07:05:29","920416","15.13165466","0.0009574","97.5366","123.6651","358.8607","1.2601","0","999","2728","0.00040178","0.00007069","0","3248538","0 SPACEBEE-110","1 48899U 21059W   21357.29548519  .00007069  00000-0  40178-3 0  9991","2 48899  97.5366 123.6651 0009574 358.8607   1.2601 15.13165466 27289","2021-059W","48899","6904.691","95.165","533.166","519.945","0"
"GENERATED VIA SPACETRACK.ORG API","18 SPCS","48899","SPACEBEE-110","PAYLOAD","U","21059W","2021-12-23 21:22:31","233792","15.13172322","0.0009524","97.5365","124.2534","356.9509","3.1662","0","999","2737","0.00035203","0.00006186","0","3249421","0 SPACEBEE-110","1 48899U 21059W   21357.89063928  .00006186  00000-0  35203-3 0  9995","2 48899  97.5365 124.2534 0009524 356.9509   3.1662 15.13172322 27377","2021-059W","48899","6904.670","95.164","533.111","519.959","0"
"GENERATED VIA SPACETRACK.ORG API","18 SPCS","48899","SPACEBEE-110","PAYLOAD","U","21059W","2021-12-24 08:29:05","416224","15.13179187","0.0009488","97.5364","124.711","355.4433","4.671","0","999","2744","0.00036795","0.0000647","0","3250064","0 SPACEBEE-110","1 48899U 21059W   21358.35353491  .00006470  00000-0  36795-3 0  9997","2 48899  97.5364 124.7110 0009488 355.4433   4.6710 15.13179187 27444","2021-059W","48899","6904.649","95.164","533.065","519.963","0"
"GENERATED VIA SPACETRACK.ORG API","18 SPCS","48899","SPACEBEE-110","PAYLOAD","U","21059W","2021-12-24 08:29:05","416224","15.13179187","0.0009488","97.5364","124.711","355.4433","4.671","0","999","2744","0.00036795","0.0000647","0","3250080","0 SPACEBEE-110","1 48899U 21059W   21358.35353491  .00006470  00000-0  36795-3 0  9997","2 48899  97.5364 124.7110 0009488 355.4433   4.6710 15.13179187 27444","2021-059W","48899","6904.649","95.164","533.065","519.963","0"
"GENERATED VIA SPACETRACK.ORG API","18 SPCS","48899","SPACEBEE-110","PAYLOAD","U","21059W","2021-12-24 21:10:52","879008","15.13183898","0.0009449","97.5363","125.234","353.6178","6.4931","0","999","2752","0.00030594","0.00005369","0","3250462","0 SPACEBEE-110","1 48899U 21059W   21358.88255647  .00005369  00000-0  30594-3 0  9996","2 48899  97.5363 125.2340 0009449 353.6178   6.4931 15.13183898 27525","2021-059W","48899","6904.635","95.164","533.024","519.975","0"
"GENERATED VIA SPACETRACK.ORG API","18 SPCS","48899","SPACEBEE-110","PAYLOAD","U","21059W","2021-12-25 14:38:20","334912","15.13193582","0.0009392","97.5361","125.953","351.0293","9.0769","0","999","2763","0.00033942","0.00005965","0","3250775","0 SPACEBEE-110","1 48899U 21059W   21359.60995758  .00005965  00000-0  33942-3 0  9993","2 48899  97.5361 125.9530 0009392 351.0293   9.0769 15.13193582 27639","2021-059W","48899","6904.605","95.163","532.955","519.985","0"
"GENERATED VIA SPACETRACK.ORG API","18 SPCS","48899","SPACEBEE-110","PAYLOAD","U","21059W","2021-12-25 20:59:13","870176","15.13196686","0.0009388","97.536","126.2144","349.9379","10.1662","0","999","2767","0.00033717","0.00005926","0","3250961","0 SPACEBEE-110","1 48899U 21059W   21359.87446609  .00005926  00000-0  33717-3 0  9995","2 48899  97.5360 126.2144 0009388 349.9379  10.1662 15.13196686 27676","2021-059W","48899","6904.596","95.163","532.943","519.979","0"
"GENERATED VIA SPACETRACK.ORG API","18 SPCS","48899","SPACEBEE-110","PAYLOAD","U","21059W","2021-12-25 20:59:13","870176","15.13196686","0.0009388","97.536","126.2144","349.9379","10.1662","0","999","2767","0.00033717","0.00005926","0","3250974","0 SPACEBEE-110","1 48899U 21059W   21359.87446609  .00005926  00000-0  33717-3 0  9995","2 48899  97.5360 126.2144 0009388 349.9379  10.1662 15.13196686 27676","2021-059W","48899","6904.596","95.163","532.943","519.979","0"
"GENERATED VIA SPACETRACK.ORG API","18 SPCS","48899","SPACEBEE-110","PAYLOAD","U","21059W","2021-12-26 08:05:47","457312","15.1320055","0.0009354","97.5358","126.672","348.2107","11.8904","0","999","2774","0.0002941","0.00005161","0","3251546","0 SPACEBEE-110","1 48899U 21059W   21360.33735483  .00005161  00000-0  29410-3 0  9995","2 48899  97.5358 126.6720 0009354 348.2107  11.8904 15.13200550 27742","2021-059W","48899","6904.584","95.163","532.907","519.990","0"
"GENERATED VIA SPACETRACK.ORG API","18 SPCS","48899","SPACEBEE-110","PAYLOAD","U","21059W","2021-12-26 22:22:47","598240","15.13205848","0.0009314","97.5356","127.2603","345.9402","14.1569","0","999","2783","0.00026062","0.00004566","0","3251846","0 SPACEBEE-110","1 48899U 21059W   21360.93249535  .00004566  00000-0  26062-3 0  9997","2 48899  97.5356 127.2603 0009314 345.9402  14.1569 15.13205848 27833","2021-059W","48899","6904.568","95.162","532.864","520.002","0"
"GENERATED VIA SPACETRACK.ORG API","18 SPCS","48899","SPACEBEE-110","PAYLOAD","U","21059W","2021-12-26 22:22:47","598240","15.13205848","0.0009314","97.5356","127.2603","345.9402","14.1569","0","999","2783","0.00026062","0.00004566","0","3252181","0 SPACEBEE-110","1 48899U 21059W   21360.93249535  .00004566  00000-0  26062-3 0  9997","2 48899  97.5356 127.2603 0009314 345.9402  14.1569 15.13205848 27833","2021-059W","48899","6904.568","95.162","532.864","520.002","0"
"GENERATED VIA SPACETRACK.ORG API","18 SPCS","48899","SPACEBEE-110","PAYLOAD","U","21059W","2021-12-27 07:54:07","586208","15.13211107","0.000929","97.5356","127.6525","344.421","15.6734","0","999","2789","0.00029256","0.00005135","0","3252683","0 SPACEBEE-110","1 48899U 21059W   21361.32925447  .00005135  00000-0  29256-3 0  9995","2 48899  97.5356 127.6525 0009290 344.4210  15.6734 15.13211107 27895","2021-059W","48899","6904.552","95.162","532.831","520.003","0"
"GENERATED VIA SPACETRACK.ORG API","18 SPCS","48899","SPACEBEE-110","PAYLOAD","U","21059W","2021-12-27 22:11:07","378944","15.1321917","0.0009258","97.5354","128.2409","342.1213","17.9691","0","999","2798","0.00035021","0.00006162","0","3253114","0 SPACEBEE-110","1 48899U 21059W   21361.92439096  .00006162  00000-0  35021-3 0  9999","2 48899  97.5354 128.2409 0009258 342.1213  17.9691 15.13219170 27988","2021-059W","48899","6904.527","95.161","532.785","520.000","0"
"GENERATED VIA SPACETRACK.ORG API","18 SPCS","48899","SPACEBEE-110","PAYLOAD","U","21059W","2021-12-28 07:42:27","145728","15.13221976","0.0009229","97.5354","128.6331","340.614","19.4738","0","999","2804","0.00031532","0.00005541","0","3253629","0 SPACEBEE-110","1 48899U 21059W   21362.32114752  .00005541  00000-0  31532-3 0  9996","2 48899  97.5354 128.6331 0009229 340.6140  19.4738 15.13221976 28040","2021-059W","48899","6904.519","95.161","532.756","520.012","0"
"GENERATED VIA SPACETRACK.ORG API","18 SPCS","48899","SPACEBEE-110","PAYLOAD","U","21059W","2021-12-28 07:42:27","145728","15.13221976","0.0009229","97.5354","128.6331","340.614","19.4738","0","999","2804","0.00031532","0.00005541","0","3253660","0 SPACEBEE-110","1 48899U 21059W   21362.32114752  .00005541  00000-0  31532-3 0  9996","2 48899  97.5354 128.6331 0009229 340.6140  19.4738 15.13221976 28040","2021-059W","48899","6904.519","95.161","532.756","520.012","0"
"GENERATED VIA SPACETRACK.ORG API","18 SPCS","48899","SPACEBEE-110","PAYLOAD","U","21059W","2021-12-28 21:59:26","547072","15.13229754","0.0009211","97.5354","129.2214","338.3608","21.7232","0","999","2813","0.00034983","0.00006157","0","3254265","0 SPACEBEE-110","1 48899U 21059W   21362.91627948  .00006157  00000-0  34983-3 0  9994","2 48899  97.5354 129.2214 0009211 338.3608  21.7232 15.13229754 28138","2021-059W","48899","6904.495","95.161","532.720","520.000","0"
